OCEANSAT-2              
1 35931U 09051A   26204.87193869  .00000189  00000+0  15481-3 0  9990
2 35931  98.2336 188.0609 0017833 128.7897 231.4866 13.99657314884468
WORLDVIEW-2 (WV-2)      
1 35946U 09055A   26204.83552628  .00000083  00000+0  41758-4 0  9998
2 35946  98.4750 277.7860 0005555 109.3414 250.8374 14.37908760880911
SMOS                    
1 36036U 09059A   26204.11909751  .00000236  00000+0  89103-4 0  9993
2 36036  98.4431  30.9276 0001221  98.4611 261.6715 14.39739437878620
YAOGAN-7                
1 36110U 09069A   26204.64605994  .00000356  00000+0  56400-4 0  9994
2 36110  98.0021  90.2797 0023158 282.6734  77.1888 14.78041121895019
TANDEM-X                
1 36605U 10030A   26203.49713300  .00000152  00000+0  10451-4 0  9996
2 36605  97.4465 210.7021 0001822 100.4354 259.7087 15.19149439892003
CARTOSAT-2B             
1 36795U 10035A   26204.88188914  .00000056  00000+0  14810-4 0  9998
2 36795  97.9936 255.1922 0012706  75.2779 284.9839 14.78656310865276
YAOGAN-10               
1 36834U 10038A   26204.87354344  .00001149  00000+0  13959-3 0  9992
2 36834  97.8979 227.9857 0001632  84.8810  38.2674 14.85448658862656
COSMO-SKYMED 4          
1 37216U 10060A   26204.83194341  .00000455  00000+0  63689-4 0  9992
2 37216  97.8906  27.9026 0001547  87.2428 272.8962 14.82157824849991
RESOURCESAT-2           
1 37387U 11015A   26204.82887307  .00000051  00000+0  43555-4 0  9994
2 37387  98.7625 272.0137 0012021 147.3783 212.8139 14.21601014791382
HAIYANG-2A              
1 37781U 11043A   26204.89161950 -.00000102  00000+0 -63635-4 0  9999
2 37781  99.3413 206.7174 0001469   5.0364 355.0798 13.73033520751694
RASAT                   
1 37791U 11044D   26204.85243838  .00000741  00000+0  13673-3 0  9996
2 37791  98.0574 295.6903 0021970  77.1867  32.2166 14.68199978798568
SRMSAT                  
1 37841U 11058D   26204.33651531  .00000363  00000+0  53261-4 0  9991
2 37841  19.9701 200.6646 0011561 241.2167 146.8753 14.11582322762933
PLEIADES 1A             
1 38012U 11076F   26204.83688905  .00000244  00000+0  62379-4 0  9990
2 38012  98.1961 279.4445 0001575  77.3255  32.2280 14.58550245777335
ZIYUAN 1-02C (ZY 1-02C) 
1 38038U 11079A   26204.88768723  .00000299  00000+0  11265-3 0  9990
2 38038  98.4054 271.4261 0006221 186.2291 284.7281 14.38240595764489
ARIRANG-3 (KOMPSAT-3)   
1 38338U 12025B   26204.84796913  .00000406  00000+0  89792-4 0  9994
2 38338  98.1197 161.6804 0005651  14.8207 345.3159 14.62234872756701
EXACTVIEW-1 (ADS-1B)    
1 38709U 12039C   26204.61239238  .00000084  00000+0  55567-4 0  9993
2 38709  98.9810 322.8314 0011833  69.3159 290.9287 14.24993978727892
SPOT 6                  
1 38755U 12047A   26204.83145652  .00000200  00000+0  52870-4 0  9997
2 38755  98.2101 271.7074 0001151  92.7623 267.3708 14.58541953738394
PLEIADES 1B             
1 39019U 12068A   26204.85008035  .00000179  00000+0  48408-4 0  9996
2 39019  98.1932 279.3937 0001466  76.5991 283.5371 14.58537543726199
GOKTURK 2               
1 39030U 12073A   26204.83503152  .00000590  00000+0  93474-4 0  9993
2 39030  97.6818  40.4284 0001192 109.8777 250.2562 14.75573849729913
LANDSAT 8               
1 39084U 13008A   26204.83183748  .00000258  00000+0  67368-4 0  9990
2 39084  98.2283 274.5283 0001333  91.6146 268.5205 14.57098547703239
SARAL                   
1 39086U 13009A   26204.84108332  .00000065  00000+0  39984-4 0  9999
2 39086  98.5560  30.9454 0002194 147.3988 212.7332 14.32897335700857
GAOFEN-1                
1 39150U 13018A   26204.86092376  .00000314  00000+0  52236-4 0  9995
2 39150  97.9079 276.1797 0017775 143.9740 216.2671 14.76525260713650
VNREDSAT 1              
1 39160U 13021B   26204.83777279  .00000271  00000+0  59215-4 0  9995
2 39160  97.9062 256.8436 0001522  81.8559 278.2817 14.64889117705651
ARIRANG-5 (KOMPSAT-5)   
1 39227U 13042A   26204.81220549  .00001430  00000+0  10648-3 0  9997
2 39227  97.6201  30.9980 0004331  31.1612 328.9870 15.04506924709362
SKYSAT-A                
1 39418U 13066C   26204.69659779  .00002918  00000+0  16737-3 0  9999
2 39418  97.3797 252.9300 0021316 183.2165 176.8933 15.13149367694005
DUBAISAT-2              
1 39419U 13066D   26204.90770647  .00004699  00000+0  28945-3 0  9994
2 39419  97.4594 194.0995 0009170 266.8639  93.1541 15.10423286691933
GPM-CORE                
1 39574U 14009C   26204.78419095  .00006135  00000+0  13396-3 0  9998
2 39574  64.9698 185.4981 0010820 264.4294  95.5612 15.45122210703461
SENTINEL-1A             
1 39634U 14016A   26204.71044689  .00000035  00000+0  17216-4 0  9998
2 39634  98.1701 211.7058 0001398  88.9672 271.1688 14.59174326655346
KAZEOSAT 1              
1 39731U 14024A   26204.86548716  .00000098  00000+0  42856-4 0  9998
2 39731  98.3190 276.3964 0001208  88.2872 271.8456 14.42039475643845
ALOS-2                  
1 39766U 14029A   26204.86381103  .00001127  00000+0  15774-3 0  9998
2 39766  97.9223 301.5035 0001612  92.5095 267.6301 14.79475113657007
KAZEOSAT 2              
1 40010U 14033A   26204.80622294  .00000197  00000+0  28614-4 0  9994
2 40010  97.5403  42.4815 0008072 188.0542 172.0546 14.85507117654395
