OBJECT_NAME,OBJECT_ID,EPOCH,MEAN_MOTION,ECCENTRICITY,INCLINATION,RA_OF_ASC_NODE,ARG_OF_PERICENTER,MEAN_ANOMALY,EPHEMERIS_TYPE,CLASSIFICATION_TYPE,NORAD_CAT_ID,ELEMENT_SET_NO,REV_AT_EPOCH,BSTAR,MEAN_MOTION_DOT,MEAN_MOTION_DDOT
OCEANSAT-2,2009-051A,2026-07-23T20:55:35.502816,13.99657314,.0017833,98.2336,188.0609,128.7897,231.4866,0,U,35931,999,88446,.15481E-3,.189E-5,0
WORLDVIEW-2 (WV-2),2009-055A,2026-07-23T20:03:09.470592,14.37908760,.0005555,98.4750,277.7860,109.3414,250.8374,0,U,35946,999,88091,.41758E-4,.83E-6,0
SMOS,2009-059A,2026-07-23T02:51:30.024864,14.39739437,.00012212,98.4431,30.9276,98.4611,261.6715,0,U,36036,999,87862,.89103152E-4,.236E-5,0
YAOGAN-7,2009-069A,2026-07-23T15:30:19.578816,14.78041121,.0023158,98.0021,90.2797,282.6734,77.1888,0,U,36110,999,89501,.564E-4,.356E-5,0
TANDEM-X,2010-030A,2026-07-22T11:55:52.291200,15.19149439,.00018225,97.4465,210.7021,100.4354,259.7087,0,U,36605,999,89200,.10450617E-4,.152E-5,0
CARTOSAT-2B,2010-035A,2026-07-23T21:09:55.221696,14.78656310,.0012706,97.9936,255.1922,75.2779,284.9839,0,U,36795,999,86527,.1481E-4,.56E-6,0
YAOGAN-10,2010-038A,2026-07-23T20:57:54.153216,14.85448658,.0001632,97.8979,227.9857,84.8810,38.2674,0,U,36834,999,86265,.13959E-3,.1149E-4,0
COSMO-SKYMED 4,2010-060A,2026-07-23T19:57:59.910624,14.82157824,.0001547,97.8906,27.9026,87.2428,272.8962,0,U,37216,999,84999,.63689E-4,.455E-5,0
RESOURCESAT-2,2011-015A,2026-07-23T19:53:34.633248,14.21601014,.0012021,98.7625,272.0137,147.3783,212.8139,0,U,37387,999,79138,.43555E-4,.51E-6,0
HAIYANG-2A,2011-043A,2026-07-23T21:23:55.924800,13.73033520,.0001469,99.3413,206.7174,5.0364,355.0798,0,U,37781,999,75169,-.63635E-4,-.102E-5,0
RASAT,2011-044D,2026-07-23T20:27:30.676032,14.68199978,.002197,98.0574,295.6903,77.1867,32.2166,0,U,37791,999,79856,.13673E-3,.741E-5,0
SRMSAT,2011-058D,2026-07-23T08:04:34.922784,14.11582322,.0011561,19.9701,200.6646,241.2167,146.8753,0,U,37841,999,76293,.53261E-4,.363E-5,0
PLEIADES 1A,2011-076F,2026-07-23T20:05:07.213920,14.58550245,.0001575,98.1961,279.4445,77.3255,32.2280,0,U,38012,999,77733,.62379E-4,.244E-5,0
ZIYUAN 1-02C (ZY 1-02C),2011-079A,2026-07-23T21:18:16.176672,14.38240595,.0006221,98.4054,271.4261,186.2291,284.7281,0,U,38038,999,76448,.11265E-3,.299E-5,0
ARIRANG-3 (KOMPSAT-3),2012-025B,2026-07-23T20:21:04.532832,14.62234872,.0005651,98.1197,161.6804,14.8207,345.3159,0,U,38338,999,75670,.89792E-4,.406E-5,0
EXACTVIEW-1 (ADS-1B),2012-039C,2026-07-23T14:41:50.701632,14.24993978,.0011833,98.9810,322.8314,69.3159,290.9287,0,U,38709,999,72789,.55567E-4,.84E-6,0
SPOT 6,2012-047A,2026-07-23T19:57:17.843328,14.58541953,.0001151,98.2101,271.7074,92.7623,267.3708,0,U,38755,999,73839,.5287E-4,.2E-5,0
PLEIADES 1B,2012-068A,2026-07-23T20:24:06.942240,14.58537543,.0001466,98.1932,279.3937,76.5991,283.5371,0,U,39019,999,72619,.48408E-4,.179E-5,0
GOKTURK 2,2012-073A,2026-07-23T20:02:26.723328,14.75573849,.0001192,97.6818,40.4284,109.8777,250.2562,0,U,39030,999,72991,.93474E-4,.59E-5,0
LANDSAT 8,2013-008A,2026-07-23T19:57:50.758272,14.57098547,.0001333,98.2283,274.5283,91.6146,268.5205,0,U,39084,999,70323,.67368E-4,.258E-5,0
SARAL,2013-009A,2026-07-23T20:11:09.598848,14.32897335,.0002194,98.5560,30.9454,147.3988,212.7332,0,U,39086,999,70085,.39984E-4,.65E-6,0
GAOFEN-1,2013-018A,2026-07-23T20:39:43.812864,14.76525260,.0017775,97.9079,276.1797,143.9740,216.2671,0,U,39150,999,71365,.52236E-4,.314E-5,0
VNREDSAT 1,2013-021B,2026-07-23T20:06:23.569056,14.64889117,.0001522,97.9062,256.8436,81.8559,278.2817,0,U,39160,999,70565,.59215E-4,.271E-5,0
ARIRANG-5 (KOMPSAT-5),2013-042A,2026-07-23T19:29:34.554336,15.04506924,.0004331,97.6201,30.9980,31.1612,328.9870,0,U,39227,999,70936,.10648E-3,.143E-4,0
SKYSAT-A,2013-066C,2026-07-23T16:43:06.049056,15.13149367,.0021316,97.3797,252.9300,183.2165,176.8933,0,U,39418,999,69400,.16737E-3,.2918E-4,0
DUBAISAT-2,2013-066D,2026-07-23T21:47:05.839008,15.10423286,.000917,97.4594,194.0995,266.8639,93.1541,0,U,39419,999,69193,.28945E-3,.4699E-4,0
GPM-CORE,2014-009C,2026-07-23T18:49:14.098080,15.45122210,.001082,64.9698,185.4981,264.4294,95.5612,0,U,39574,999,70346,.13396E-3,.6135E-4,0
SENTINEL-1A,2014-016A,2026-07-23T17:03:02.611296,14.59174326,.0001398,98.1701,211.7058,88.9672,271.1688,0,U,39634,999,65534,.17216E-4,.35E-6,0
KAZEOSAT 1,2014-024A,2026-07-23T20:46:18.090624,14.42039475,.0001208,98.3190,276.3964,88.2872,271.8456,0,U,39731,999,64384,.42856E-4,.98E-6,0
ALOS-2,2014-029A,2026-07-23T20:43:53.272992,14.79475113,.0001612,97.9223,301.5035,92.5095,267.6301,0,U,39766,999,65700,.15774E-3,.1127E-4,0
KAZEOSAT 2,2014-033A,2026-07-23T19:20:57.662016,14.85507117,.0008072,97.5403,42.4815,188.0542,172.0546,0,U,40010,999,65439,.28614E-4,.197E-5,0
